name,country,address,postalZip,email,phone
William Patrick,Netherlands,Ap #726-957 Ultricies Rd.,47071,erat@protonmail.net,1-742-463-7781
Aquila Bowen,South Korea,800-4236 Sed Ave,66982-34028,convallis@hotmail.org,1-223-486-1781
Dale Mccarthy,India,512-1441 Proin Av.,34020,tellus.aenean@google.edu,(668) 570-9429
Xaviera Goodman,China,481-9488 Feugiat St.,61897,nunc.id.enim@icloud.com,(413) 732-6734
Ray Byrd,United States,"P.O. Box 109, 6590 Lorem. St.",01735,aliquam.fringilla.cursus@yahoo.ca,(854) 436-3532
Kelly Hooper,Philippines,Ap #531-4677 Fusce Av.,6863-9985,rutrum.lorem.ac@hotmail.org,(761) 567-2676
Bertha Kirk,Ireland,530-7377 Pede. Av.,50024,quisque.tincidunt@google.com,(223) 784-5039
Quinn Chavez,Austria,4848 Dignissim St.,245436,egestas.aliquam@yahoo.couk,1-467-217-9864
Desirae Hensley,Ireland,781-5466 Eu St.,114122,cursus.a@hotmail.org,(211) 544-2683
Imani Frazier,Nigeria,Ap #913-7876 Molestie Rd.,764894,sapien.nunc.pulvinar@yahoo.org,1-713-797-7535
Perry Mcbride,United Kingdom,"385-4109 Lobortis, Rd.",408158,eu.dui.cum@yahoo.couk,(576) 973-2086
Francis Battle,Turkey,"P.O. Box 662, 1644 Est, Av.",768185,sed@icloud.net,(321) 316-8424
Louis Horne,Costa Rica,"3294 Et, St.",29963,ac.tellus.suspendisse@yahoo.ca,1-337-775-6257
Karina Watts,Spain,761-4574 Morbi Av.,50562,faucibus@google.net,(636) 644-3958
Hoyt Rodgers,United States,"P.O. Box 594, 1175 Integer Rd.",252817,metus.in@outlook.com,1-664-632-0112
Frances Henry,Sweden,429-1910 Primis Street,56772,auctor.vitae@icloud.org,1-521-114-4604
Geraldine Abbott,Philippines,789-3632 Quisque Street,96-422,velit.justo@outlook.couk,1-232-975-1564
Lacy Fleming,United States,850-1093 In Rd.,5921,vel@icloud.ca,1-295-148-6455
Harlan Garcia,Belgium,2249 Semper Ave,B1L 3B7,vivamus@icloud.org,(643) 269-3176
Nevada Hahn,Costa Rica,7697 Phasellus Rd.,8862,sodales.elit.erat@google.edu,(356) 843-9933
Moana Burt,France,Ap #216-326 Blandit Road,47200-52651,ornare.fusce.mollis@icloud.edu,1-817-694-2036
Stuart Bass,Netherlands,Ap #171-3822 Gravida. St.,623748,neque@yahoo.ca,1-872-490-3435
Reece Aguilar,Ireland,3714 In St.,183432,ornare.in@google.com,(955) 714-8507
McKenzie Compton,Canada,Ap #203-1157 Habitant St.,5416,hendrerit@google.edu,1-609-483-9388
Arthur Kelley,Poland,"P.O. Box 896, 3125 Nibh St.",2108,ligula.tortor.dictum@aol.edu,(448) 886-2844
Hyacinth Byrd,Spain,"Ap #989-300 A, Road",352793,sed.id@outlook.edu,1-715-332-5829
Mannix Harrington,China,"Ap #118-234 Ultrices, Street",0737,quis.diam.pellentesque@hotmail.org,1-826-466-7623
Reagan Ford,Costa Rica,505-6465 Molestie Avenue,5564 YO,libero.donec@google.net,1-315-787-1869
Chantale Hancock,Philippines,"P.O. Box 536, 5061 Tristique Av.",773666,mi.duis@icloud.couk,(406) 454-4606
Carter Frazier,Mexico,"P.O. Box 790, 224 Aliquam Street",36-578,aenean.sed@google.org,1-275-493-9607
Channing Lane,South Africa,892-4989 Sagittis. St.,72696,euismod.ac@protonmail.edu,1-832-336-4526
Alden Ortiz,France,Ap #385-5699 Nascetur St.,286064,duis.elementum@outlook.ca,1-224-773-4724
Sophia Page,Sweden,482-4473 Mauris Rd.,278351,quisque.imperdiet@protonmail.couk,(486) 708-6221
Graiden Foley,Ukraine,644-7695 Penatibus St.,392428,velit.justo@yahoo.edu,1-744-543-2154
Harding Atkins,Netherlands,Ap #532-6327 In St.,3967,sagittis@icloud.net,(711) 474-6918
Forrest Brown,Poland,Ap #562-8713 Nisl. St.,24147-955,eu@icloud.org,(456) 536-8358
Willa Weeks,Pakistan,Ap #102-7839 Convallis St.,61366,morbi.neque@aol.ca,(528) 699-6017
Sybil Church,Vietnam,748-2768 Iaculis Street,35825,convallis.ante@outlook.ca,1-177-294-2448
Noelani Holland,United Kingdom,328-6241 Faucibus. St.,87104,id@protonmail.edu,1-273-636-9227
Ferris Stokes,China,181-9864 Felis Road,8883 BE,est.nunc.ullamcorper@icloud.net,(487) 196-4966
Cameron Warner,Canada,605-4409 Cum Rd.,04255-15717,egestas@google.org,(871) 587-9648
Nicholas Goodwin,Mexico,"352-2662 Eget, St.",T6R 4M8,commodo@google.org,(272) 514-7225
Daquan Oneal,Russian Federation,7765 Mus. Av.,528230,eu.dui@google.org,1-711-692-6722
Elijah Pace,New Zealand,562-7018 Orci St.,255433,eu.odio@icloud.edu,(617) 185-3576
Sopoline Mccoy,Russian Federation,9151 Eu St.,78011-93456,mauris.sit@google.ca,1-658-875-1747
Gail Oneil,France,"Ap #330-3330 Ut, Rd.",541543,ligula@aol.ca,(371) 735-7284
Orlando Estes,India,Ap #186-1495 Fusce Street,51214,tempor.arcu@aol.com,1-787-207-6094
Violet Barker,France,6306 Eu Road,5185,sem.eget.massa@outlook.org,1-613-930-3034
Maya Gonzales,Belgium,"405-5647 Et, Rd.",94-81,purus.sapien@icloud.couk,(457) 687-9756
Callum Dickson,Netherlands,564-1719 Tortor. Av.,21-79,semper.cursus@icloud.org,(786) 447-2645
Hope Curtis,New Zealand,"Ap #156-2796 Eget, Rd.",84201,eu.sem@aol.org,(233) 827-8187
Darryl Church,Indonesia,"Ap #167-6230 In, St.",264781,tincidunt@outlook.ca,(414) 245-0321
Jordan Mullins,Poland,2889 Nunc St.,015462,lacus.cras.interdum@hotmail.couk,1-645-324-4765
Steel Blair,Nigeria,258-2718 Enim Rd.,623434,et.magnis@protonmail.couk,(584) 455-9784
Lois Fuller,Norway,"P.O. Box 894, 919 Imperdiet Street",83712-17433,adipiscing.lobortis@google.org,1-892-713-7268
Boris Dale,Italy,3544 Tempor St.,854254,tellus.imperdiet.non@hotmail.couk,1-758-818-3563
Claudia Chavez,Nigeria,730-9378 Elit Rd.,36-17,placerat@icloud.ca,1-435-865-4631
Lewis Nichols,Germany,528-5830 Ullamcorper Rd.,6112,nec@outlook.org,1-525-277-3328
Kelly Mullins,Mexico,2679 Diam. Road,669785,lacus.mauris.non@google.ca,1-168-413-3354
Chastity Randall,Chile,972-7181 Vestibulum St.,58-812,mauris.magna.duis@aol.ca,1-227-652-7522
Keith Brown,Colombia,"495-1446 Mauris, Rd.",64463,eget@protonmail.edu,1-730-342-2722
Ferris Flores,South Korea,"Ap #803-2011 Elit, Av.",21415,interdum.sed@aol.net,1-951-278-1837
Lavinia Ware,Norway,7047 Eget Av.,223555,sit.amet.luctus@outlook.com,1-385-432-4965
Kaitlin Espinoza,Vietnam,Ap #723-6626 Arcu. St.,367676,ut.pellentesque@google.com,1-325-553-6785
Maggie Barnett,Ukraine,"720-5579 Et, Road",76589,ornare.lectus.justo@hotmail.couk,(882) 227-5146
Clinton Solis,Canada,"P.O. Box 893, 8196 Maecenas Road",58-52,vestibulum.massa@aol.couk,1-299-572-2765
Galena Bowman,United Kingdom,3695 Nec St.,2533,magnis.dis@protonmail.com,(325) 975-8196
Hillary Mclaughlin,Russian Federation,526-1622 Sed Rd.,88752,elit@google.org,(936) 715-4971
Fleur Stark,Australia,237-7677 Ultrices. Ave,396096,lectus.pede.ultrices@protonmail.net,(333) 382-3884
Keelie Fletcher,Russian Federation,Ap #722-1106 Lorem Avenue,280419,adipiscing.elit.etiam@outlook.couk,(544) 440-3347
Lawrence Benson,Canada,8849 Imperdiet Avenue,326875,enim@aol.ca,1-665-872-5596
Tanner Cruz,Australia,Ap #896-5660 Nunc Road,4176,nec.eleifend@outlook.net,(772) 572-7967
Deirdre Christian,Mexico,870-8867 Urna Road,53837,leo.cras.vehicula@icloud.edu,1-443-233-1485
Jonas Mcneil,South Korea,Ap #106-646 Non Rd.,315283,aliquam.ultrices@protonmail.couk,(781) 142-6359
Laura Jacobson,Ireland,651-3560 Pellentesque St.,23296-262,at.arcu@yahoo.net,(221) 931-7416
Armand Beck,Philippines,Ap #638-5487 Nulla Ave,15097,cum@google.com,1-111-688-3637
Martin Duran,United States,Ap #318-3722 Aliquam Rd.,24-745,nunc.sed@hotmail.org,(696) 972-4668
Kato Summers,South Africa,Ap #175-2857 Orci Road,157454,quisque@hotmail.com,(720) 837-3704
Zelenia Estrada,Indonesia,"247-7909 Eu, St.",1868,consectetuer.cursus@icloud.ca,1-473-177-0137
Aquila Lee,China,179-464 Vivamus St.,51753,libero.mauris@yahoo.net,1-993-511-2365
Stacy Gould,Poland,969-6615 Quis Rd.,12297,fusce.dolor.quam@aol.couk,(235) 458-2976
Amos Clark,Ireland,702-404 Egestas Avenue,38716,lectus.nullam@outlook.com,(537) 788-8969
Christine Kent,Australia,871-1530 Sagittis Ave,12301,dolor.sit.amet@google.net,1-399-931-2069
Fleur Nguyen,Belgium,8600 Pede Rd.,84024-46411,eu.ultrices@yahoo.ca,(811) 575-7614
Garth Emerson,Italy,Ap #297-8009 Sapien Rd.,R2V 6V9,pede@outlook.net,1-775-108-1979
Nyssa Rodriquez,South Korea,5081 Etiam St.,222925,libero.morbi@icloud.couk,1-135-898-1450
Chester Hinton,Italy,"P.O. Box 688, 7477 Praesent Ave",236730,nullam@outlook.org,(714) 686-0317
Keefe Winters,Canada,"P.O. Box 658, 4889 Id, St.",79845,dolor.nulla@protonmail.couk,(771) 327-2761
Howard Edwards,France,6525 Tincidunt Avenue,21052,non.nisi@google.edu,(718) 879-6538
Ruth Alford,Singapore,Ap #659-8223 Parturient Rd.,55688-163,vitae.sodales.at@aol.couk,(483) 152-5232
Pascale Flowers,Poland,445-8811 Aliquam Av.,845779,molestie.sodales@icloud.couk,(876) 421-4981
Paula Herring,Belgium,"P.O. Box 480, 9913 Dapibus St.",724550,et@hotmail.ca,1-942-982-1253
Basil Brooks,Singapore,664-861 Tellus Street,23699,lorem.eget@google.edu,(886) 691-6533
Davis Ramos,Germany,Ap #108-3878 Posuere Av.,T2C 5J9,diam@icloud.ca,(312) 775-5358
Ebony Massey,South Korea,"Ap #124-1923 Mi, Av.",82554-41273,tellus@yahoo.net,(898) 564-8691
Ursa Matthews,Belgium,299-4765 Non Street,26357,mattis.ornare@yahoo.couk,1-375-335-4326
Cade Wong,Ukraine,Ap #681-6738 Augue Rd.,885837,eu.augue@icloud.couk,(208) 375-1828
Bethany Bentley,Belgium,Ap #626-5820 Maecenas Street,39841,in.lobortis@aol.net,(463) 265-4251
Virginia Boone,Brazil,"P.O. Box 927, 3139 Lorem, Rd.",V6H 4OV,quis.turpis@yahoo.com,1-732-844-4565
Kyle Glenn,Pakistan,"P.O. Box 274, 8132 Dolor Avenue",14-304,dolor@yahoo.com,(533) 411-4791
